OBJECT_NAME,OBJECT_ID,EPOCH,MEAN_MOTION,ECCENTRICITY,INCLINATION,RA_OF_ASC_NODE,ARG_OF_PERICENTER,MEAN_ANOMALY,EPHEMERIS_TYPE,CLASSIFICATION_TYPE,NORAD_CAT_ID,ELEMENT_SET_NO,REV_AT_EPOCH,BSTAR,MEAN_MOTION_DOT,MEAN_MOTION_DDOT
STARLINK-34930,2025-212N,2026-07-16T04:28:33.786624,15.31711272,.0001223,53.1582,108.3482,95.3157,264.7983,0,U,65688,999,4692,.24754E-3,.7327E-4,0
STARLINK-34875,2025-212P,2026-07-16T03:17:50.579808,15.34398360,.0001199,53.1590,108.0455,90.8227,269.2913,0,U,65689,999,4692,.36484E-3,.11969E-3,0
STARLINK-34790,2025-212Q,2026-07-16T03:45:06.450624,15.34406505,.0001368,53.1607,108.1651,72.2968,287.8184,0,U,65690,999,4687,.30094E-3,.9807E-4,0
STARLINK-34691,2025-212R,2026-07-16T03:06:16.070688,15.30205141,.0001413,53.1603,98.7094,67.0269,293.0881,0,U,65691,999,4705,.34911E-3,.9996E-4,0
STARLINK-34825,2025-212S,2026-07-16T03:11:47.037120,15.34401663,.0001177,53.1594,108.0181,92.6288,267.4850,0,U,65692,999,4691,.26139E-3,.8466E-4,0
STARLINK-35060,2025-212T,2026-07-16T00:13:19.839360,15.30192618,.0001243,53.1587,99.3813,83.6616,276.4526,0,U,65693,999,4703,-.38813E-3,-.11834E-3,0
STARLINK-35204,2025-212U,2026-07-16T02:53:36.141216,15.34398067,.0001514,53.1589,107.9363,99.2741,260.8433,0,U,65694,999,4693,.10016E-3,.3009E-4,0
STARLINK-35221,2025-212V,2026-07-16T03:39:34.934688,15.30199539,.0001284,53.1599,108.8422,75.5817,284.5326,0,U,65695,999,4692,.20525E-3,.5724E-4,0
STARLINK-34734,2025-212W,2026-07-16T03:14:37.743648,15.31715584,.0001265,53.1588,108.0269,90.5722,269.5424,0,U,65696,999,4692,.30634E-3,.9157E-4,0
STARLINK-35113,2025-212X,2026-07-16T03:59:26.871072,15.34409296,.0001202,53.1579,106.0931,109.2992,250.8140,0,U,65697,999,4695,.2987E-3,.9732E-4,0
STARLINK-35090,2025-212Y,2026-07-15T23:15:43.009920,15.34393724,.0001284,53.1586,108.4122,73.8175,286.2969,0,U,65698,999,4690,.10673E-3,.3231E-4,0
STARLINK-35086,2025-212Z,2026-07-16T03:35:53.234880,15.31717086,.000069,53.1601,108.8286,87.7019,272.4062,0,U,65699,999,4686,.28879E-3,.8612E-4,0
STARLINK-35101,2025-212AA,2026-07-16T01:00:56.979360,15.34403644,.0001276,53.1580,106.7421,99.0722,261.0425,0,U,65700,999,4688,.20935E-3,.6704E-4,0
STARLINK-35046,2025-212AB,2026-07-16T04:39:31.161024,15.34399887,.000149,53.1579,107.6852,87.3539,272.7634,0,U,65701,999,4693,.1893E-3,.6025E-4,0
STARLINK-35075,2025-212AC,2026-07-16T03:29:10.395744,15.31712449,.0001397,53.1612,108.7978,77.0010,283.1147,0,U,65702,999,4691,.26199E-3,.7776E-4,0
STARLINK-34839,2025-212AD,2026-07-16T03:41:30.678720,15.31715373,.0001254,53.1596,108.1411,84.9508,275.1636,0,U,65703,999,4692,.27875E-3,.8299E-4,0
STARLINK-34086,2025-216A,2026-07-16T04:00:01.998720,15.34350168,.0001336,53.1585,95.9727,101.3259,354.5297,0,U,65734,999,591,.17571E-2,.59366E-3,0
STARLINK-35099,2025-216B,2026-07-16T04:00:01.998720,15.33535056,.0001169,53.1595,95.7962,64.4545,119.0582,0,U,65735,999,585,.19319E-2,.63678E-3,0
STARLINK-35167,2025-216C,2026-07-16T04:00:01.998720,15.34359891,.0001126,53.1592,95.9023,94.9622,35.7436,0,U,65736,999,586,.16501E-2,.5572E-3,0
STARLINK-35121,2025-216D,2026-07-15T23:42:03.228768,15.34395454,.0001283,53.1613,96.4615,89.9955,270.1195,0,U,65737,999,4619,.85344E-3,.28564E-3,0
STARLINK-35108,2025-216E,2026-07-16T04:00:01.998720,15.34363195,.0001304,53.1593,96.0636,90.6305,318.6881,0,U,65738,999,585,.14388E-2,.48494E-3,0
STARLINK-35106,2025-216F,2026-07-16T04:00:01.998720,15.33517030,.0001141,53.1595,96.1183,87.8012,290.9155,0,U,65739,999,575,.14465E-2,.47453E-3,0
STARLINK-35130,2025-216G,2026-07-16T02:06:15.073344,15.30200069,.0001265,53.1579,96.3751,107.8382,252.2757,0,U,65740,999,4625,.21692E-3,.6071E-4,0
STARLINK-35284,2025-216H,2026-07-16T00:03:15.717600,15.34433445,.0003064,53.1606,96.5579,95.6795,264.4557,0,U,65741,999,4619,-.11432E-2,-.38852E-3,0
STARLINK-35316,2025-216J,2026-07-15T23:39:01.343808,15.34403025,.0000965,53.1606,96.4521,91.7306,268.3807,0,U,65742,999,4510,.23874E-3,.7699E-4,0
STARLINK-35319,2025-216K,2026-07-16T03:11:25.967616,15.30216122,.0001339,53.1589,95.9434,91.4306,268.6848,0,U,65743,999,4626,.41313E-3,.11902E-3,0
STARLINK-35173,2025-216L,2026-07-16T02:43:35.172192,15.34402404,.0001271,53.1609,95.8267,86.9960,273.1188,0,U,65744,999,4626,.30119E-3,.9814E-4,0
STARLINK-34808,2025-216M,2026-07-16T03:02:18.970080,15.30231823,.0001317,53.1600,95.9039,88.7764,271.3387,0,U,65745,999,4618,.52489E-3,.15234E-3,0
STARLINK-34704,2025-216N,2026-07-16T03:19:56.697888,15.34396734,.0001359,53.1596,95.9813,115.3938,244.7205,0,U,65746,999,4620,.24245E-3,.7823E-4,0
STARLINK-35214,2025-216P,2026-07-15T23:48:06.379200,15.34409032,.0001279,53.1608,96.4848,90.2815,269.8334,0,U,65747,999,4619,.34837E-3,.11415E-3,0
