STARLINK-34930          
1 65688U 25212N   26197.18650216  .00007327  00000+0  24754-3 0  9992
2 65688  53.1582 108.3482 0001223  95.3157 264.7983 15.31711272 46923
STARLINK-34875          
1 65689U 25212P   26197.13739097  .00011969  00000+0  36484-3 0  9993
2 65689  53.1590 108.0455 0001199  90.8227 269.2913 15.34398360 46925
STARLINK-34790          
1 65690U 25212Q   26197.15632466  .00009807  00000+0  30094-3 0  9998
2 65690  53.1607 108.1651 0001368  72.2968 287.8184 15.34406505 46870
STARLINK-34691          
1 65691U 25212R   26197.12935267  .00009996  00000+0  34911-3 0  9992
2 65691  53.1603  98.7094 0001413  67.0269 293.0881 15.30205141 47052
STARLINK-34825          
1 65692U 25212S   26197.13318330  .00008466  00000+0  26139-3 0  9994
2 65692  53.1594 108.0181 0001177  92.6288 267.4850 15.34401663 46912
STARLINK-35060          
1 65693U 25212T   26197.00925740 -.00011834  00000+0 -38813-3 0  9997
2 65693  53.1587  99.3813 0001243  83.6616 276.4526 15.30192618 47035
STARLINK-35204          
1 65694U 25212U   26197.12055719  .00003009  00000+0  10016-3 0  9999
2 65694  53.1589 107.9363 0001514  99.2741 260.8433 15.34398067 46939
STARLINK-35221          
1 65695U 25212V   26197.15248767  .00005724  00000+0  20525-3 0  9992
2 65695  53.1599 108.8422 0001284  75.5817 284.5326 15.30199539 46924
STARLINK-34734          
1 65696U 25212W   26197.13515907  .00009157  00000+0  30634-3 0  9990
2 65696  53.1588 108.0269 0001265  90.5722 269.5424 15.31715584 46922
STARLINK-35113          
1 65697U 25212X   26197.16628323  .00009732  00000+0  29870-3 0  9990
2 65697  53.1579 106.0931 0001202 109.2992 250.8140 15.34409296 46959
STARLINK-35090          
1 65698U 25212Y   26196.96924780  .00003231  00000+0  10673-3 0  9993
2 65698  53.1586 108.4122 0001284  73.8175 286.2969 15.34393724 46900
STARLINK-35086          
1 65699U 25212Z   26197.14992170  .00008612  00000+0  28879-3 0  9998
2 65699  53.1601 108.8286 0000690  87.7019 272.4062 15.31717086 46869
STARLINK-35101          
1 65700U 25212AA  26197.04232615  .00006704  00000+0  20935-3 0  9996
2 65700  53.1580 106.7421 0001276  99.0722 261.0425 15.34403644 46888
STARLINK-35046          
1 65701U 25212AB  26197.19411066  .00006025  00000+0  18930-3 0  9990
2 65701  53.1579 107.6852 0001490  87.3539 272.7634 15.34399887 46939
STARLINK-35075          
1 65702U 25212AC  26197.14525921  .00007776  00000+0  26199-3 0  9992
2 65702  53.1612 108.7978 0001397  77.0010 283.1147 15.31712449 46918
STARLINK-34839          
1 65703U 25212AD  26197.15382730  .00008299  00000+0  27875-3 0  9996
2 65703  53.1596 108.1411 0001254  84.9508 275.1636 15.31715373 46921
STARLINK-34086          
1 65734U 25216A   26197.16668980  .00059366  00000+0  17571-2 0  9991
2 65734  53.1585  95.9727 0001336 101.3259 354.5297 15.34350168  5913
STARLINK-35099          
1 65735U 25216B   26197.16668980  .00063678  00000+0  19319-2 0  9995
2 65735  53.1595  95.7962 0001169  64.4545 119.0582 15.33535056  5859
STARLINK-35167          
1 65736U 25216C   26197.16668980  .00055720  00000+0  16501-2 0  9995
2 65736  53.1592  95.9023 0001126  94.9622  35.7436 15.34359891  5869
STARLINK-35121          
1 65737U 25216D   26196.98753737  .00028564  00000+0  85344-3 0  9998
2 65737  53.1613  96.4615 0001283  89.9955 270.1195 15.34395454 46197
STARLINK-35108          
1 65738U 25216E   26197.16668980  .00048494  00000+0  14388-2 0  9998
2 65738  53.1593  96.0636 0001304  90.6305 318.6881 15.34363195  5851
STARLINK-35106          
1 65739U 25216F   26197.16668980  .00047453  00000+0  14465-2 0  9999
2 65739  53.1595  96.1183 0001141  87.8012 290.9155 15.33517030  5757
STARLINK-35130          
1 65740U 25216G   26197.08767446  .00006071  00000+0  21692-3 0  9991
2 65740  53.1579  96.3751 0001265 107.8382 252.2757 15.30200069 46251
STARLINK-35284          
1 65741U 25216H   26197.00226525 -.00038852  00000+0 -11432-2 0  9996
2 65741  53.1606  96.5579 0003064  95.6795 264.4557 15.34433445 46190
STARLINK-35316          
1 65742U 25216J   26196.98543222  .00007699  00000+0  23874-3 0  9996
2 65742  53.1606  96.4521 0000965  91.7306 268.3807 15.34403025 45101
STARLINK-35319          
1 65743U 25216K   26197.13293944  .00011902  00000+0  41313-3 0  9998
2 65743  53.1589  95.9434 0001339  91.4306 268.6848 15.30216122 46264
STARLINK-35173          
1 65744U 25216L   26197.11360153  .00009814  00000+0  30119-3 0  9995
2 65744  53.1609  95.8267 0001271  86.9960 273.1188 15.34402404 46263
STARLINK-34808          
1 65745U 25216M   26197.12660845  .00015234  00000+0  52489-3 0  9995
2 65745  53.1600  95.9039 0001317  88.7764 271.3387 15.30231823 46189
STARLINK-34704          
1 65746U 25216N   26197.13885067  .00007823  00000+0  24245-3 0  9996
2 65746  53.1596  95.9813 0001359 115.3938 244.7205 15.34396734 46203
STARLINK-35214          
1 65747U 25216P   26196.99174050  .00011415  00000+0  34837-3 0  9993
2 65747  53.1608  96.4848 0001279  90.2815 269.8334 15.34409032 46193
